[{"OBJECT_NAME":"ALOS (DAICHI)","OBJECT_ID":"2006-002A","EPOCH":"2026-03-07T02:53:08.723904","MEAN_MOTION":14.69799645,"ECCENTRICITY":0.0001018,"INCLINATION":98.1215,"RA_OF_ASC_NODE":22.0886,"ARG_OF_PERICENTER":53.7102,"MEAN_ANOMALY":306.4198,"EPHEMERIS_TYPE":0,"CLASSIFICATION_TYPE":"U","NORAD_CAT_ID":28931,"ELEMENT_SET_NO":999,"REV_AT_EPOCH":7310,"BSTAR":0.00031641,"MEAN_MOTION_DOT":1.839e-5,"MEAN_MOTION_DDOT":0},{"OBJECT_NAME":"H-2A R/B","OBJECT_ID":"2006-002B","EPOCH":"2026-03-06T23:16:19.517376","MEAN_MOTION":15.16344462,"ECCENTRICITY":0.0051979,"INCLINATION":98.2405,"RA_OF_ASC_NODE":212.7593,"ARG_OF_PERICENTER":250.4216,"MEAN_ANOMALY":109.1398,"EPHEMERIS_TYPE":0,"CLASSIFICATION_TYPE":"U","NORAD_CAT_ID":28932,"ELEMENT_SET_NO":999,"REV_AT_EPOCH":9402,"BSTAR":0.00057777,"MEAN_MOTION_DOT":0.00011526,"MEAN_MOTION_DDOT":0},{"OBJECT_NAME":"RESURS-DK 1","OBJECT_ID":"2006-021A","EPOCH":"2026-03-06T21:22:18.571872","MEAN_MOTION":15.12718353,"ECCENTRICITY":0.0002145,"INCLINATION":69.931,"RA_OF_ASC_NODE":244.2641,"ARG_OF_PERICENTER":163.7769,"MEAN_ANOMALY":196.3466,"EPHEMERIS_TYPE":0,"CLASSIFICATION_TYPE":"U","NORAD_CAT_ID":29228,"ELEMENT_SET_NO":999,"REV_AT_EPOCH":8710,"BSTAR":0.0002019,"MEAN_MOTION_DOT":3.438e-5,"MEAN_MOTION_DDOT":0},{"OBJECT_NAME":"CZ-4B R/B","OBJECT_ID":"2006-046C","EPOCH":"2026-03-07T02:27:35.603424","MEAN_MOTION":15.16870457,"ECCENTRICITY":0.0031651,"INCLINATION":97.5594,"RA_OF_ASC_NODE":111.0178,"ARG_OF_PERICENTER":276.7665,"MEAN_ANOMALY":82.9966,"EPHEMERIS_TYPE":0,"CLASSIFICATION_TYPE":"U","NORAD_CAT_ID":29507,"ELEMENT_SET_NO":999,"REV_AT_EPOCH":5965,"BSTAR":0.00025153,"MEAN_MOTION_DOT":4.944e-5,"MEAN_MOTION_DDOT":0},{"OBJECT_NAME":"CZ-2C R/B","OBJECT_ID":"2007-010B","EPOCH":"2026-03-07T04:33:08.758080","MEAN_MOTION":14.20245016,"ECCENTRICITY":0.0057949,"INCLINATION":98.3977,"RA_OF_ASC_NODE":179.5938,"ARG_OF_PERICENTER":302.0241,"MEAN_ANOMALY":57.5314,"EPHEMERIS_TYPE":0,"CLASSIFICATION_TYPE":"U","NORAD_CAT_ID":31114,"ELEMENT_SET_NO":999,"REV_AT_EPOCH":97936,"BSTAR":9.2326e-5,"MEAN_MOTION_DOT":1.59e-6,"MEAN_MOTION_DDOT":0},{"OBJECT_NAME":"COSMO-SKYMED 1","OBJECT_ID":"2007-023A","EPOCH":"2026-03-07T04:34:23.302272","MEAN_MOTION":14.96508951,"ECCENTRICITY":9.92e-5,"INCLINATION":97.8866,"RA_OF_ASC_NODE":257.2026,"ARG_OF_PERICENTER":100.1471,"MEAN_ANOMALY":259.9861,"EPHEMERIS_TYPE":0,"CLASSIFICATION_TYPE":"U","NORAD_CAT_ID":31598,"ELEMENT_SET_NO":999,"REV_AT_EPOCH":1453,"BSTAR":0.0003557,"MEAN_MOTION_DOT":3.983e-5,"MEAN_MOTION_DDOT":0},{"OBJECT_NAME":"COSMOS 2428","OBJECT_ID":"2007-029A","EPOCH":"2026-03-07T03:03:52.376256","MEAN_MOTION":14.12945507,"ECCENTRICITY":0.0008993,"INCLINATION":70.9428,"RA_OF_ASC_NODE":208.7201,"ARG_OF_PERICENTER":279.6115,"MEAN_ANOMALY":80.399,"EPHEMERIS_TYPE":0,"CLASSIFICATION_TYPE":"U","NORAD_CAT_ID":31792,"ELEMENT_SET_NO":999,"REV_AT_EPOCH":96373,"BSTAR":6.3552e-5,"MEAN_MOTION_DOT":7.1e-7,"MEAN_MOTION_DDOT":0},{"OBJECT_NAME":"SL-16 R/B","OBJECT_ID":"2007-029B","EPOCH":"2026-03-07T00:58:06.259008","MEAN_MOTION":14.14833235,"ECCENTRICITY":0.0002359,"INCLINATION":70.9757,"RA_OF_ASC_NODE":177.9533,"ARG_OF_PERICENTER":277.017,"MEAN_ANOMALY":255.5967,"EPHEMERIS_TYPE":0,"CLASSIFICATION_TYPE":"U","NORAD_CAT_ID":31793,"ELEMENT_SET_NO":999,"REV_AT_EPOCH":96499,"BSTAR":-6.3099e-6,"MEAN_MOTION_DOT":-6.0e-7,"MEAN_MOTION_DDOT":0},{"OBJECT_NAME":"KORONAS-FOTON","OBJECT_ID":"2009-003A","EPOCH":"2026-03-07T00:59:08.179296","MEAN_MOTION":15.43244793,"ECCENTRICITY":0.0011087,"INCLINATION":82.4274,"RA_OF_ASC_NODE":278.632,"ARG_OF_PERICENTER":158.6844,"MEAN_ANOMALY":201.4867,"EPHEMERIS_TYPE":0,"CLASSIFICATION_TYPE":"U","NORAD_CAT_ID":33504,"ELEMENT_SET_NO":999,"REV_AT_EPOCH":94533,"BSTAR":0.00027419,"MEAN_MOTION_DOT":0.00012247,"MEAN_MOTION_DDOT":0},{"OBJECT_NAME":"CZ-2C R/B","OBJECT_ID":"2011-030B","EPOCH":"2026-03-06T21:51:24.950016","MEAN_MOTION":14.81208917,"ECCENTRICITY":0.0052695,"INCLINATION":97.8547,"RA_OF_ASC_NODE":23.2296,"ARG_OF_PERICENTER":1.1084,"MEAN_ANOMALY":64.909,"EPHEMERIS_TYPE":0,"CLASSIFICATION_TYPE":"U","NORAD_CAT_ID":37731,"ELEMENT_SET_NO":999,"REV_AT_EPOCH":78968,"BSTAR":0.0002923,"MEAN_MOTION_DOT":2.275e-5,"MEAN_MOTION_DDOT":0},{"OBJECT_NAME":"H-2A R/B","OBJECT_ID":"2012-025E","EPOCH":"2026-03-07T04:27:08.762112","MEAN_MOTION":14.95140776,"ECCENTRICITY":0.0043496,"INCLINATION":98.4735,"RA_OF_ASC_NODE":33.031,"ARG_OF_PERICENTER":322.8445,"MEAN_ANOMALY":36.9764,"EPHEMERIS_TYPE":0,"CLASSIFICATION_TYPE":"U","NORAD_CAT_ID":38341,"ELEMENT_SET_NO":999,"REV_AT_EPOCH":74784,"BSTAR":0.00047843,"MEAN_MOTION_DOT":5.281e-5,"MEAN_MOTION_DDOT":0},{"OBJECT_NAME":"SHIJIAN-16 (SJ-16)","OBJECT_ID":"2013-057A","EPOCH":"2026-03-07T05:10:30.063936","MEAN_MOTION":14.923362,"ECCENTRICITY":0.0015579,"INCLINATION":74.9734,"RA_OF_ASC_NODE":189.7706,"ARG_OF_PERICENTER":119.0998,"MEAN_ANOMALY":241.1752,"EPHEMERIS_TYPE":0,"CLASSIFICATION_TYPE":"U","NORAD_CAT_ID":39358,"ELEMENT_SET_NO":999,"REV_AT_EPOCH":67113,"BSTAR":0.00065523,"MEAN_MOTION_DOT":6.691e-5,"MEAN_MOTION_DDOT":0},{"OBJECT_NAME":"SL-4 R/B","OBJECT_ID":"2014-021B","EPOCH":"2026-03-07T03:52:46.170336","MEAN_MOTION":15.390783,"ECCENTRICITY":0.0097799,"INCLINATION":51.6088,"RA_OF_ASC_NODE":349.6101,"ARG_OF_PERICENTER":93.7843,"MEAN_ANOMALY":267.433,"EPHEMERIS_TYPE":0,"CLASSIFICATION_TYPE":"U","NORAD_CAT_ID":39679,"ELEMENT_SET_NO":999,"REV_AT_EPOCH":65588,"BSTAR":0.00036867,"MEAN_MOTION_DOT":0.00016718,"MEAN_MOTION_DDOT":0},{"OBJECT_NAME":"ALOS-2","OBJECT_ID":"2014-029A","EPOCH":"2026-03-07T05:11:41.413920","MEAN_MOTION":14.79490574,"ECCENTRICITY":0.0001441,"INCLINATION":97.9197,"RA_OF_ASC_NODE":164.8492,"ARG_OF_PERICENTER":97.0904,"MEAN_ANOMALY":263.0472,"EPHEMERIS_TYPE":0,"CLASSIFICATION_TYPE":"U","NORAD_CAT_ID":39766,"ELEMENT_SET_NO":999,"REV_AT_EPOCH":63650,"BSTAR":0.00030662,"MEAN_MOTION_DOT":2.24e-5,"MEAN_MOTION_DDOT":0},{"OBJECT_NAME":"YAOGAN-29","OBJECT_ID":"2015-069A","EPOCH":"2026-03-07T03:54:48.722688","MEAN_MOTION":14.82992136,"ECCENTRICITY":0.000205,"INCLINATION":98.0141,"RA_OF_ASC_NODE":94.5854,"ARG_OF_PERICENTER":40.8375,"MEAN_ANOMALY":319.2992,"EPHEMERIS_TYPE":0,"CLASSIFICATION_TYPE":"U","NORAD_CAT_ID":41038,"ELEMENT_SET_NO":999,"REV_AT_EPOCH":55550,"BSTAR":9.781e-5,"MEAN_MOTION_DOT":7.4e-6,"MEAN_MOTION_DDOT":0},{"OBJECT_NAME":"ASTRO-H (HITOMI)","OBJECT_ID":"2016-012A","EPOCH":"2026-03-07T02:55:56.213760","MEAN_MOTION":15.09982796,"ECCENTRICITY":0.0009946,"INCLINATION":31.0009,"RA_OF_ASC_NODE":13.1152,"ARG_OF_PERICENTER":305.3698,"MEAN_ANOMALY":54.601,"EPHEMERIS_TYPE":0,"CLASSIFICATION_TYPE":"U","NORAD_CAT_ID":41337,"ELEMENT_SET_NO":999,"REV_AT_EPOCH":55184,"BSTAR":0.00023498,"MEAN_MOTION_DOT":4.009e-5,"MEAN_MOTION_DDOT":0},{"OBJECT_NAME":"HXMT (HUIYAN)","OBJECT_ID":"2017-034A","EPOCH":"2026-03-07T05:03:09.454176","MEAN_MOTION":15.17419323,"ECCENTRICITY":0.0032671,"INCLINATION":43.0153,"RA_OF_ASC_NODE":30.4553,"ARG_OF_PERICENTER":220.8483,"MEAN_ANOMALY":138.9915,"EPHEMERIS_TYPE":0,"CLASSIFICATION_TYPE":"U","NORAD_CAT_ID":42758,"ELEMENT_SET_NO":999,"REV_AT_EPOCH":48216,"BSTAR":0.00035463,"MEAN_MOTION_DOT":7.085e-5,"MEAN_MOTION_DDOT":0}]
